ONEWEB-0504             
1 54122U 22138K   25337.06602347 -.00000324  00000+0 -84076-3 0  9996
2 54122  87.9204 343.9860 0002094  94.3413 265.7959 13.19723849150969
ONEWEB-0505             
1 54123U 22138L   25337.06287366  .00000050  00000+0  91413-4 0  9995
2 54123  87.9212 343.9761 0002367  91.1859 268.9545 13.19723352150944
ONEWEB-0506             
1 54124U 22138M   25337.26505473  .00000041  00000+0  70756-4 0  9997
2 54124  87.9207 343.9332 0001978  90.5425 269.5934 13.19724129150966
ONEWEB-0507             
1 54125U 22138N   25337.05813594  .00000041  00000+0  70991-4 0  9992
2 54125  87.9193 344.0110 0002056  88.3904 271.7464 13.19723813150986
ONEWEB-0508             
1 54126U 22138P   25337.05498351  .00000099  00000+0  21429-3 0  9997
2 54126  87.9200 344.0046 0002129  86.1580 273.9796 13.19724367150966
ONEWEB-0509             
1 54127U 22138Q   25337.25714959  .00000038  00000+0  62664-4 0  9995
2 54127  87.9209 343.9341 0001927  89.6713 270.4640 13.19723445150969
ONEWEB-0510             
1 54128U 22138R   25337.30017091  .00000039  00000+0  64427-4 0  9995
2 54128  87.9186 313.5012 0001263  87.5079 272.6199 13.20773708153423
ONEWEB-0511             
1 54129U 22138S   25337.25399965 -.00000038  00000+0 -12824-3 0  9997
2 54129  87.9210 343.9380 0001876  99.3820 260.7525 13.19723911150991
